LEMUR-2-LANGER2SPACE    
1 63358U 25061H   26116.33477113  .00005046  00000+0  28137-3 0  9992
2 63358  97.5586  92.4019 0018729  78.2535 282.0796 15.13886828 59771
LEMUR-2-BALTO           
1 63395U 25052BH  26116.28085694  .00005868  00000+0  48211-3 0  9993
2 63395  97.6942  10.5262 0001236 178.1569 181.9659 14.99545041 60984
LEMUR-2-KRISH           
1 64561U 25135AK  26116.30270545  .00005930  00000+0  53761-3 0  9991
2 64561  97.7669 231.5787 0001078 104.5666 255.5674 14.95709821 46162
LEMUR-2-HUBBLE-4        
1 64565U 25135AP  26116.27196051  .00001924  00000+0  19026-3 0  9995
2 64565  97.7635 230.8213 0003997 101.4457 258.7212 14.93049161 46122
LEMUR-2-SEJONG-2        
1 64586U 25135BL  26116.55118459  .00005527  00000+0  49446-3 0  9997
2 64586  97.7624 231.9643 0005777 128.7206 231.4533 14.96252537 46225
LEMUR-2-HUBBLE-5        
1 64840U 25135BT  26116.31999336  .00001927  00000+0  18623-3 0  9998
2 64840  97.7652 231.4289 0006575 141.4380 218.7311 14.93971748 46166
LEMUR-2-KARENDARRELL    
1 64841U 25135BU  26116.54373007  .00010979  00000+0  90035-3 0  9999
2 64841  97.7669 232.8683 0009330  48.7838 311.4188 14.99385117 46277
LEMUR-2-LUCILLE-ROSE    
1 65403U 25135BV  26116.31848285  .00010503  00000+0  86147-3 0  9996
2 65403  97.7644 232.6325 0010954  97.8439 262.4028 14.99375843 40864
LEMUR-2-AFFIE-WAUWIE    
1 66295U 25248C   26116.48131257  .00025354  00000+0  99328-3 0  9998
2 66295  45.3992  34.7594 0008874 152.4312 207.7049 15.25390686 26696
LEMUR-2-DEANANDMAEVE    
1 66678U 25276N   26115.75996618  .00007258  00000+0  34934-3 0  9998
2 66678  97.4227 190.1285 0006300 168.4140 191.7241 15.19047941 22454
LEMUR-2-STAS-GORBUK     
1 66686U 25276W   26115.76401274  .00005826  00000+0  28317-3 0  9994
2 66686  97.4264 190.1877 0005884 162.7087 197.4348 15.18793512 22456
LEMUR-2-TEODOR          
1 66768U 25276DG  26116.46333275  .00007103  00000+0  32833-3 0  9996
2 66768  97.4167 191.0465 0001285  73.9425 286.1952 15.20473130 22587
LEMUR-2-LAILA           
1 66776U 25276DQ  26116.51042725  .00007019  00000+0  32247-3 0  9993
2 66776  97.4190 191.1807 0001862  58.8084 301.3333 15.20686394 22599
LEMUR-2-CELIJO-SB-PK    
1 66781U 25276DW  26116.45798544  .00006945  00000+0  57270-3 0  9999
2 66781  97.5248 188.9525 0008692 307.2924  52.7507 14.99304262 14871
LEMUR-2-FINNIAN         
1 66782U 25276DX  26116.44956388  .00006716  00000+0  54776-3 0  9995
2 66782  97.5268 189.1307 0005243 286.8974  73.1675 14.99759772 12243
LEMUR-2-STARLIGHT       
1 66783U 25276DY  26115.76075883  .00005821  00000+0  49005-3 0  9997
2 66783  97.5289 188.2048 0012831 313.9946  46.0218 14.98533048 22340
