[{"OBJECT_NAME":"LEMUR-2-LANGER2SPACE","OBJECT_ID":"2025-061H","EPOCH":"2026-04-26T08:02:04.225632","MEAN_MOTION":15.13886828,"ECCENTRICITY":0.0018729,"INCLINATION":97.5586,"RA_OF_ASC_NODE":92.4019,"ARG_OF_PERICENTER":78.2535,"MEAN_ANOMALY":282.0796,"EPHEMERIS_TYPE":0,"CLASSIFICATION_TYPE":"U","NORAD_CAT_ID":63358,"ELEMENT_SET_NO":999,"REV_AT_EPOCH":5977,"BSTAR":0.00028137,"MEAN_MOTION_DOT":5.046e-5,"MEAN_MOTION_DDOT":0},{"OBJECT_NAME":"LEMUR-2-BALTO","OBJECT_ID":"2025-052BH","EPOCH":"2026-04-26T06:44:26.039616","MEAN_MOTION":14.99545041,"ECCENTRICITY":0.0001236,"INCLINATION":97.6942,"RA_OF_ASC_NODE":10.5262,"ARG_OF_PERICENTER":178.1569,"MEAN_ANOMALY":181.9659,"EPHEMERIS_TYPE":0,"CLASSIFICATION_TYPE":"U","NORAD_CAT_ID":63395,"ELEMENT_SET_NO":999,"REV_AT_EPOCH":6098,"BSTAR":0.00048211,"MEAN_MOTION_DOT":5.868e-5,"MEAN_MOTION_DDOT":0},{"OBJECT_NAME":"LEMUR-2-KRISH","OBJECT_ID":"2025-135AK","EPOCH":"2026-04-26T07:15:53.750880","MEAN_MOTION":14.95709821,"ECCENTRICITY":0.0001078,"INCLINATION":97.7669,"RA_OF_ASC_NODE":231.5787,"ARG_OF_PERICENTER":104.5666,"MEAN_ANOMALY":255.5674,"EPHEMERIS_TYPE":0,"CLASSIFICATION_TYPE":"U","NORAD_CAT_ID":64561,"ELEMENT_SET_NO":999,"REV_AT_EPOCH":4616,"BSTAR":0.00053761,"MEAN_MOTION_DOT":5.93e-5,"MEAN_MOTION_DDOT":0},{"OBJECT_NAME":"LEMUR-2-HUBBLE-4","OBJECT_ID":"2025-135AP","EPOCH":"2026-04-26T06:31:37.388064","MEAN_MOTION":14.93049161,"ECCENTRICITY":0.0003997,"INCLINATION":97.7635,"RA_OF_ASC_NODE":230.8213,"ARG_OF_PERICENTER":101.4457,"MEAN_ANOMALY":258.7212,"EPHEMERIS_TYPE":0,"CLASSIFICATION_TYPE":"U","NORAD_CAT_ID":64565,"ELEMENT_SET_NO":999,"REV_AT_EPOCH":4612,"BSTAR":0.00019026,"MEAN_MOTION_DOT":1.924e-5,"MEAN_MOTION_DDOT":0},{"OBJECT_NAME":"LEMUR-2-SEJONG-2","OBJECT_ID":"2025-135BL","EPOCH":"2026-04-26T13:13:42.348576","MEAN_MOTION":14.96252537,"ECCENTRICITY":0.0005777,"INCLINATION":97.7624,"RA_OF_ASC_NODE":231.9643,"ARG_OF_PERICENTER":128.7206,"MEAN_ANOMALY":231.4533,"EPHEMERIS_TYPE":0,"CLASSIFICATION_TYPE":"U","NORAD_CAT_ID":64586,"ELEMENT_SET_NO":999,"REV_AT_EPOCH":4622,"BSTAR":0.00049446,"MEAN_MOTION_DOT":5.527e-5,"MEAN_MOTION_DDOT":0},{"OBJECT_NAME":"LEMUR-2-HUBBLE-5","OBJECT_ID":"2025-135BT","EPOCH":"2026-04-26T07:40:47.426304","MEAN_MOTION":14.93971748,"ECCENTRICITY":0.0006575,"INCLINATION":97.7652,"RA_OF_ASC_NODE":231.4289,"ARG_OF_PERICENTER":141.438,"MEAN_ANOMALY":218.7311,"EPHEMERIS_TYPE":0,"CLASSIFICATION_TYPE":"U","NORAD_CAT_ID":64840,"ELEMENT_SET_NO":999,"REV_AT_EPOCH":4616,"BSTAR":0.00018623,"MEAN_MOTION_DOT":1.927e-5,"MEAN_MOTION_DDOT":0},{"OBJECT_NAME":"LEMUR-2-KARENDARRELL","OBJECT_ID":"2025-135BU","EPOCH":"2026-04-26T13:02:58.278048","MEAN_MOTION":14.99385117,"ECCENTRICITY":0.000933,"INCLINATION":97.7669,"RA_OF_ASC_NODE":232.8683,"ARG_OF_PERICENTER":48.7838,"MEAN_ANOMALY":311.4188,"EPHEMERIS_TYPE":0,"CLASSIFICATION_TYPE":"U","NORAD_CAT_ID":64841,"ELEMENT_SET_NO":999,"REV_AT_EPOCH":4627,"BSTAR":0.00090035,"MEAN_MOTION_DOT":0.00010979,"MEAN_MOTION_DDOT":0},{"OBJECT_NAME":"LEMUR-2-LUCILLE-ROSE","OBJECT_ID":"2025-135BV","EPOCH":"2026-04-26T07:38:36.918240","MEAN_MOTION":14.99375843,"ECCENTRICITY":0.0010954,"INCLINATION":97.7644,"RA_OF_ASC_NODE":232.6325,"ARG_OF_PERICENTER":97.8439,"MEAN_ANOMALY":262.4028,"EPHEMERIS_TYPE":0,"CLASSIFICATION_TYPE":"U","NORAD_CAT_ID":65403,"ELEMENT_SET_NO":999,"REV_AT_EPOCH":4086,"BSTAR":0.00086147,"MEAN_MOTION_DOT":0.00010503,"MEAN_MOTION_DDOT":0},{"OBJECT_NAME":"LEMUR-2-AFFIE-WAUWIE","OBJECT_ID":"2025-248C","EPOCH":"2026-04-26T11:33:05.406048","MEAN_MOTION":15.25390686,"ECCENTRICITY":0.0008874,"INCLINATION":45.3992,"RA_OF_ASC_NODE":34.7594,"ARG_OF_PERICENTER":152.4312,"MEAN_ANOMALY":207.7049,"EPHEMERIS_TYPE":0,"CLASSIFICATION_TYPE":"U","NORAD_CAT_ID":66295,"ELEMENT_SET_NO":999,"REV_AT_EPOCH":2669,"BSTAR":0.00099328,"MEAN_MOTION_DOT":0.00025354,"MEAN_MOTION_DDOT":0},{"OBJECT_NAME":"LEMUR-2-DEANANDMAEVE","OBJECT_ID":"2025-276N","EPOCH":"2026-04-25T18:14:21.077952","MEAN_MOTION":15.19047941,"ECCENTRICITY":0.00063005,"INCLINATION":97.4227,"RA_OF_ASC_NODE":190.1285,"ARG_OF_PERICENTER":168.414,"MEAN_ANOMALY":191.7241,"EPHEMERIS_TYPE":0,"CLASSIFICATION_TYPE":"U","NORAD_CAT_ID":66678,"ELEMENT_SET_NO":999,"REV_AT_EPOCH":2245,"BSTAR":0.00034933519,"MEAN_MOTION_DOT":7.258e-5,"MEAN_MOTION_DDOT":0},{"OBJECT_NAME":"LEMUR-2-STAS-GORBUK","OBJECT_ID":"2025-276W","EPOCH":"2026-04-25T18:20:10.700736","MEAN_MOTION":15.18793512,"ECCENTRICITY":0.00058843,"INCLINATION":97.4264,"RA_OF_ASC_NODE":190.1877,"ARG_OF_PERICENTER":162.7087,"MEAN_ANOMALY":197.4348,"EPHEMERIS_TYPE":0,"CLASSIFICATION_TYPE":"U","NORAD_CAT_ID":66686,"ELEMENT_SET_NO":999,"REV_AT_EPOCH":2245,"BSTAR":0.00028317443,"MEAN_MOTION_DOT":5.826e-5,"MEAN_MOTION_DDOT":0},{"OBJECT_NAME":"LEMUR-2-TEODOR","OBJECT_ID":"2025-276DG","EPOCH":"2026-04-26T11:07:11.949600","MEAN_MOTION":15.2047313,"ECCENTRICITY":0.0001285,"INCLINATION":97.4167,"RA_OF_ASC_NODE":191.0465,"ARG_OF_PERICENTER":73.9425,"MEAN_ANOMALY":286.1952,"EPHEMERIS_TYPE":0,"CLASSIFICATION_TYPE":"U","NORAD_CAT_ID":66768,"ELEMENT_SET_NO":999,"REV_AT_EPOCH":2258,"BSTAR":0.00032833,"MEAN_MOTION_DOT":7.103e-5,"MEAN_MOTION_DDOT":0},{"OBJECT_NAME":"LEMUR-2-LAILA","OBJECT_ID":"2025-276DQ","EPOCH":"2026-04-26T12:15:00.914400","MEAN_MOTION":15.20686394,"ECCENTRICITY":0.0001862,"INCLINATION":97.419,"RA_OF_ASC_NODE":191.1807,"ARG_OF_PERICENTER":58.8084,"MEAN_ANOMALY":301.3333,"EPHEMERIS_TYPE":0,"CLASSIFICATION_TYPE":"U","NORAD_CAT_ID":66776,"ELEMENT_SET_NO":999,"REV_AT_EPOCH":2259,"BSTAR":0.00032247,"MEAN_MOTION_DOT":7.019e-5,"MEAN_MOTION_DDOT":0},{"OBJECT_NAME":"LEMUR-2-CELIJO-SB-PK","OBJECT_ID":"2025-276DW","EPOCH":"2026-04-26T10:59:29.942016","MEAN_MOTION":14.99304262,"ECCENTRICITY":0.0008692,"INCLINATION":97.5248,"RA_OF_ASC_NODE":188.9525,"ARG_OF_PERICENTER":307.2924,"MEAN_ANOMALY":52.7507,"EPHEMERIS_TYPE":0,"CLASSIFICATION_TYPE":"U","NORAD_CAT_ID":66781,"ELEMENT_SET_NO":999,"REV_AT_EPOCH":1487,"BSTAR":0.0005727,"MEAN_MOTION_DOT":6.945e-5,"MEAN_MOTION_DDOT":0},{"OBJECT_NAME":"LEMUR-2-FINNIAN","OBJECT_ID":"2025-276DX","EPOCH":"2026-04-26T10:47:22.319232","MEAN_MOTION":14.99759772,"ECCENTRICITY":0.0005243,"INCLINATION":97.5268,"RA_OF_ASC_NODE":189.1307,"ARG_OF_PERICENTER":286.8974,"MEAN_ANOMALY":73.1675,"EPHEMERIS_TYPE":0,"CLASSIFICATION_TYPE":"U","NORAD_CAT_ID":66782,"ELEMENT_SET_NO":999,"REV_AT_EPOCH":1224,"BSTAR":0.00054776,"MEAN_MOTION_DOT":6.716e-5,"MEAN_MOTION_DDOT":0},{"OBJECT_NAME":"LEMUR-2-STARLIGHT","OBJECT_ID":"2025-276DY","EPOCH":"2026-04-25T18:15:29.562912","MEAN_MOTION":14.98533048,"ECCENTRICITY":0.00128314,"INCLINATION":97.5289,"RA_OF_ASC_NODE":188.2048,"ARG_OF_PERICENTER":313.9946,"MEAN_ANOMALY":46.0218,"EPHEMERIS_TYPE":0,"CLASSIFICATION_TYPE":"U","NORAD_CAT_ID":66783,"ELEMENT_SET_NO":999,"REV_AT_EPOCH":2234,"BSTAR":0.00049005181,"MEAN_MOTION_DOT":5.821e-5,"MEAN_MOTION_DDOT":0}]
